{
  "type": "FeatureCollection",
  "features": [
    {
      "type": "Feature",
      "properties": {
        "norad_id": 40691,
        "name": "FENGYUN 1C DEB",
        "group": "fengyun-1c-debris",
        "lat": 65.96393198134497,
        "lon": -4.991645491638967,
        "alt_km": 950.3800620909824,
        "timestamp": "2025-12-09T14:52:26.452105+00:00",
        "meta_object_name": "FENGYUN 1C DEB",
        "meta_object_id": "1999-025EWX",
        "meta_epoch": "2025-12-03T08:15:02.306016",
        "meta_mean_motion": 13.89944729,
        "meta_eccentricity": 0.0128434,
        "meta_inclination": 99.0573,
        "meta_ra_of_asc_node": 9.8547,
        "meta_arg_of_pericenter": 336.6089,
        "meta_mean_anomaly": 22.9259,
        "meta_ephemeris_type": 0,
        "meta_classification_type": "U",
        "meta_norad_cat_id": 40691,
        "meta_element_set_no": 999,
        "meta_rev_at_epoch": 55305,
        "meta_bstar": 0.00023937,
        "meta_mean_motion_dot": 2.71e-06,
        "meta_mean_motion_ddot": 0,
        "tle_line1": "1 40691U 99025EWX 25337.34377669  .00000271  00000+0  23937-3 0  9996",
        "tle_line2": "2 40691  99.0573   9.8547 0128434 336.6089  22.9259 13.89944729553058"
      },
      "geometry": {
        "type": "Point",
        "coordinates": [
          -4.991645491638967,
          65.96393198134497
        ]
      }
    },
    {
      "type": "Feature",
      "properties": {
        "norad_id": 40695,
        "name": "FENGYUN 1C DEB",
        "group": "fengyun-1c-debris",
        "lat": 12.224792308127462,
        "lon": -76.4826522519761,
        "alt_km": 922.6255381221645,
        "timestamp": "2025-12-09T14:52:26.452116+00:00",
        "meta_object_name": "FENGYUN 1C DEB",
        "meta_object_id": "1999-025EXB",
        "meta_epoch": "2025-12-08T01:41:20.731776",
        "meta_mean_motion": 14.5094297,
        "meta_eccentricity": 0.02812644,
        "meta_inclination": 99.4262,
        "meta_ra_of_asc_node": 99.7179,
        "meta_arg_of_pericenter": 346.8428,
        "meta_mean_anomaly": 12.553,
        "meta_ephemeris_type": 0,
        "meta_classification_type": "U",
        "meta_norad_cat_id": 40695,
        "meta_element_set_no": 999,
        "meta_rev_at_epoch": 31798,
        "meta_bstar": 0.00027064659,
        "meta_mean_motion_dot": 1.711e-05,
        "meta_mean_motion_ddot": 0,
        "tle_line1": "1 40695U 99025EXB 25342.07037884  .00001711  00000+0  27065-3 0  9994",
        "tle_line2": "2 40695  99.4262  99.7179 0281264 346.8428  12.5530 14.50942970317983"
      },
      "geometry": {
        "type": "Point",
        "coordinates": [
          -76.4826522519761,
          12.224792308127462
        ]
      }
    },
    {
      "type": "Feature",
      "properties": {
        "norad_id": 40696,
        "name": "FENGYUN 1C DEB",
        "group": "fengyun-1c-debris",
        "lat": -61.368407019198486,
        "lon": -12.755663361121425,
        "alt_km": 890.4231789591877,
        "timestamp": "2025-12-09T14:52:26.452126+00:00",
        "meta_object_name": "FENGYUN 1C DEB",
        "meta_object_id": "1999-025EXC",
        "meta_epoch": "2025-11-26T05:40:29.681760",
        "meta_mean_motion": 13.96727195,
        "meta_eccentricity": 0.00806572,
        "meta_inclination": 98.9548,
        "meta_ra_of_asc_node": 317.4298,
        "meta_arg_of_pericenter": 42.7994,
        "meta_mean_anomaly": 317.9411,
        "meta_ephemeris_type": 0,
        "meta_classification_type": "U",
        "meta_norad_cat_id": 40696,
        "meta_element_set_no": 999,
        "meta_rev_at_epoch": 55449,
        "meta_bstar": 0.0001965233,
        "meta_mean_motion_dot": 2.38e-06,
        "meta_mean_motion_ddot": 0,
        "tle_line1": "1 40696U 99025EXC 25330.23645465  .00000238  00000+0  19652-3 0  9996",
        "tle_line2": "2 40696  98.9548 317.4298 0080657  42.7994 317.9411 13.96727195554498"
      },
      "geometry": {
        "type": "Point",
        "coordinates": [
          -12.755663361121425,
          -61.368407019198486
        ]
      }
    },
    {
      "type": "Feature",
      "properties": {
        "norad_id": 41003,
        "name": "FENGYUN 1C DEB",
        "group": "fengyun-1c-debris",
        "lat": 64.22784485855648,
        "lon": -116.6792959825534,
        "alt_km": 674.5196653057637,
        "timestamp": "2025-12-09T14:52:26.452137+00:00",
        "meta_object_name": "FENGYUN 1C DEB",
        "meta_object_id": "1999-025EXH",
        "meta_epoch": "2025-12-04T00:49:42.134016",
        "meta_mean_motion": 14.71928212,
        "meta_eccentricity": 0.0073367,
        "meta_inclination": 98.9659,
        "meta_ra_of_asc_node": 256.2527,
        "meta_arg_of_pericenter": 319.547,
        "meta_mean_anomaly": 40.0293,
        "meta_ephemeris_type": 0,
        "meta_classification_type": "U",
        "meta_norad_cat_id": 41003,
        "meta_element_set_no": 999,
        "meta_rev_at_epoch": 52292,
        "meta_bstar": 0.0095392716,
        "meta_mean_motion_dot": 0.00062834,
        "meta_mean_motion_ddot": 0,
        "tle_line1": "1 41003U 99025EXH 25338.03451544  .00062834  00000+0  95393-2 0  9993",
        "tle_line2": "2 41003  98.9659 256.2527 0073367 319.5470  40.0293 14.71928212522925"
      },
      "geometry": {
        "type": "Point",
        "coordinates": [
          -116.6792959825534,
          64.22784485855648
        ]
      }
    },
    {
      "type": "Feature",
      "properties": {
        "norad_id": 41006,
        "name": "FENGYUN 1C DEB",
        "group": "fengyun-1c-debris",
        "lat": -18.754201221605317,
        "lon": 29.157568476859478,
        "alt_km": 1088.5277234104242,
        "timestamp": "2025-12-09T14:52:26.452147+00:00",
        "meta_object_name": "FENGYUN 1C DEB",
        "meta_object_id": "1999-025EXL",
        "meta_epoch": "2025-12-08T08:27:10.950912",
        "meta_mean_motion": 13.85315126,
        "meta_eccentricity": 0.01896295,
        "meta_inclination": 102.3663,
        "meta_ra_of_asc_node": 211.7628,
        "meta_arg_of_pericenter": 18.9212,
        "meta_mean_anomaly": 341.8856,
        "meta_ephemeris_type": 0,
        "meta_classification_type": "U",
        "meta_norad_cat_id": 41006,
        "meta_element_set_no": 999,
        "meta_rev_at_epoch": 57428,
        "meta_bstar": 0.0041566845,
        "meta_mean_motion_dot": 5.374e-05,
        "meta_mean_motion_ddot": 0,
        "tle_line1": "1 41006U 99025EXL 25342.35221008  .00005374  00000+0  41567-2 0  9996",
        "tle_line2": "2 41006 102.3663 211.7628 0189629  18.9212 341.8856 13.85315126574285"
      },
      "geometry": {
        "type": "Point",
        "coordinates": [
          29.157568476859478,
          -18.754201221605317
        ]
      }
    },
    {
      "type": "Feature",
      "properties": {
        "norad_id": 41007,
        "name": "FENGYUN 1C DEB",
        "group": "fengyun-1c-debris",
        "lat": 31.638002868636445,
        "lon": 3.971210899149171,
        "alt_km": 822.9007409018986,
        "timestamp": "2025-12-09T14:52:26.452157+00:00",
        "meta_object_name": "FENGYUN 1C DEB",
        "meta_object_id": "1999-025EXM",
        "meta_epoch": "2025-11-29T06:55:22.773792",
        "meta_mean_motion": 13.85678237,
        "meta_eccentricity": 0.01723955,
        "meta_inclination": 99.9731,
        "meta_ra_of_asc_node": 359.205,
        "meta_arg_of_pericenter": 79.2855,
        "meta_mean_anomaly": 282.7657,
        "meta_ephemeris_type": 0,
        "meta_classification_type": "U",
        "meta_norad_cat_id": 41007,
        "meta_element_set_no": 999,
        "meta_rev_at_epoch": 57212,
        "meta_bstar": 0.0017167305,
        "meta_mean_motion_dot": 2.158e-05,
        "meta_mean_motion_ddot": 0,
        "tle_line1": "1 41007U 99025EXM 25333.28845803  .00002158  00000+0  17167-2 0  9990",
        "tle_line2": "2 41007  99.9731 359.2050 0172395  79.2855 282.7657 13.85678237572123"
      },
      "geometry": {
        "type": "Point",
        "coordinates": [
          3.971210899149171,
          31.638002868636445
        ]
      }
    },
    {
      "type": "Feature",
      "properties": {
        "norad_id": 41011,
        "name": "FENGYUN 1C DEB",
        "group": "fengyun-1c-debris",
        "lat": -70.7367657461418,
        "lon": -179.13719391411416,
        "alt_km": 842.0532265024667,
        "timestamp": "2025-12-09T14:52:26.452167+00:00",
        "meta_object_name": "FENGYUN 1C DEB",
        "meta_object_id": "1999-025EXR",
        "meta_epoch": "2025-12-09T02:02:32.648640",
        "meta_mean_motion": 14.42863783,
        "meta_eccentricity": 0.03104191,
        "meta_inclination": 99.169,
        "meta_ra_of_asc_node": 27.8139,
        "meta_arg_of_pericenter": 8.9643,
        "meta_mean_anomaly": 351.6912,
        "meta_ephemeris_type": 0,
        "meta_classification_type": "U",
        "meta_norad_cat_id": 41011,
        "meta_element_set_no": 999,
        "meta_rev_at_epoch": 57104,
        "meta_bstar": 0.00066413797,
        "meta_mean_motion_dot": 3.918e-05,
        "meta_mean_motion_ddot": 0,
        "tle_line1": "1 41011U 99025EXR 25343.08510010  .00003918  00000+0  66414-3 0  9998",
        "tle_line2": "2 41011  99.1690  27.8139 0310419   8.9643 351.6912 14.42863783571041"
      },
      "geometry": {
        "type": "Point",
        "coordinates": [
          -179.13719391411416,
          -70.7367657461418
        ]
      }
    }
  ]
}